start=new Date('2022-03-24T00:00:00.000Z').valueOf();
sats=[{"OBJECT_ID":"2020-088BF","PERIOD":"95.592","DECAY_DATE":null,"MEAN_MOTION_DOT":"0.00001398","CLASSIFICATION_TYPE":"U","EPOCH":"2022-03-23T19:50:35.464704","BSTAR":"0.00011276000000","SEMIMAJOR_AXIS":"6925.359","PERIAPSIS":"546.096","APOAPSIS":"548.351","MEAN_MOTION_DDOT":"0.0000000000000","REF_FRAME":"TEME","OBJECT_NAME":"STARLINK-1895","TIME_SYSTEM":"UTC","ECCENTRICITY":"0.00016280","RA_OF_ASC_NODE":"296.8340","INCLINATION":"53.0547","CENTER_NAME":"EARTH","TLE_LINE1":"1 47175U 20088BF  22082.82679936  .00001398  00000-0  11276-3 0  9997","OBJECT_TYPE":"PAYLOAD","ELEMENT_SET_NO":"999","COUNTRY_CODE":"US","RCS_SIZE":"LARGE","LAUNCH_DATE":"2020-11-25","MEAN_ELEMENT_THEORY":"SGP4","NORAD_CAT_ID":"47175","ARG_OF_PERICENTER":"51.2469","FILE":"3371636","MEAN_MOTION":"15.06396663","MEAN_ANOMALY":"308.8665","SITE":"AFETR","GP_ID":"199537533","REV_AT_EPOCH":"7404","EPHEMERIS_TYPE":"0","TLE_LINE2":"2 47175  53.0547 296.8340 0001628  51.2469 308.8665 15.06396663 74042"},{"GP_ID":"199538284","REV_AT_EPOCH":"7391","SITE":"AFETR","MEAN_ANOMALY":"286.9117","TLE_LINE2":"2 47177  53.0558 306.6077 0001411  73.2027 286.9117 15.06388321 73912","EPHEMERIS_TYPE":"0","LAUNCH_DATE":"2020-11-25","NORAD_CAT_ID":"47177","MEAN_ELEMENT_THEORY":"SGP4","COUNTRY_CODE":"US","RCS_SIZE":"LARGE","ARG_OF_PERICENTER":"73.2027","MEAN_MOTION":"15.06388321","FILE":"3371636","RA_OF_ASC_NODE":"306.6077","TIME_SYSTEM":"UTC","ECCENTRICITY":"0.00014110","OBJECT_TYPE":"PAYLOAD","ELEMENT_SET_NO":"999","INCLINATION":"53.0558","CENTER_NAME":"EARTH","TLE_LINE1":"1 47177U 20088BH  22082.87749346 -.00000420  00000-0 -92985-5 0  9992","EPOCH":"2022-03-23T21:03:35.434944","CLASSIFICATION_TYPE":"U","BSTAR":"-0.00000929850000","PERIOD":"95.593","OBJECT_ID":"2020-088BH","DECAY_DATE":null,"MEAN_MOTION_DOT":"-0.00000420","MEAN_MOTION_DDOT":"0.0000000000000","OBJECT_NAME":"STARLINK-1907","REF_FRAME":"TEME","SEMIMAJOR_AXIS":"6925.384","APOAPSIS":"548.227","PERIAPSIS":"546.272"},{"ECCENTRICITY":"0.00014820","TIME_SYSTEM":"UTC","RA_OF_ASC_NODE":"316.6903","TLE_LINE1":"1 47178U 20088BJ  22082.85812595  .00000925  00000-0  80978-4 0  9994","INCLINATION":"53.0559","CENTER_NAME":"EARTH","ELEMENT_SET_NO":"999","OBJECT_TYPE":"PAYLOAD","MEAN_MOTION_DOT":"0.00000925","DECAY_DATE":null,"PERIOD":"95.592","OBJECT_ID":"2020-088BJ","BSTAR":"0.00008097800000","EPOCH":"2022-03-23T20:35:42.082080","CLASSIFICATION_TYPE":"U","PERIAPSIS":"546.191","APOAPSIS":"548.244","SEMIMAJOR_AXIS":"6925.352","OBJECT_NAME":"STARLINK-1912","REF_FRAME":"TEME","MEAN_MOTION_DDOT":"0.0000000000000","SITE":"AFETR","MEAN_ANOMALY":"288.4025","REV_AT_EPOCH":"7376","GP_ID":"199536532","TLE_LINE2":"2 47178  53.0559 316.6903 0001482  71.7125 288.4025 15.06398727 73762","EPHEMERIS_TYPE":"0","RCS_SIZE":"LARGE","COUNTRY_CODE":"US","NORAD_CAT_ID":"47178","MEAN_ELEMENT_THEORY":"SGP4","LAUNCH_DATE":"2020-11-25","MEAN_MOTION":"15.06398727","FILE":"3371636","ARG_OF_PERICENTER":"71.7125"},{"PERIAPSIS":"546.203","APOAPSIS":"548.220","SEMIMAJOR_AXIS":"6925.347","OBJECT_NAME":"STARLINK-1913","REF_FRAME":"TEME","MEAN_MOTION_DDOT":"0.0000000000000","DECAY_DATE":null,"MEAN_MOTION_DOT":"0.00000002","PERIOD":"95.592","OBJECT_ID":"2020-088BK","BSTAR":"0.00001905400000","EPOCH":"2022-03-23T20:18:27.362592","CLASSIFICATION_TYPE":"U","TLE_LINE1":"1 47179U 20088BK  22082.84615003  .00000002  00000-0  19054-4 0  9992","INCLINATION":"53.0553","CENTER_NAME":"EARTH","ELEMENT_SET_NO":"999","OBJECT_TYPE":"PAYLOAD","ECCENTRICITY":"0.00014560","TIME_SYSTEM":"UTC","RA_OF_ASC_NODE":"326.7404","MEAN_MOTION":"15.06400632","FILE":"3371636","ARG_OF_PERICENTER":"71.5341","RCS_SIZE":"LARGE","COUNTRY_CODE":"US","NORAD_CAT_ID":"47179","MEAN_ELEMENT_THEORY":"SGP4","LAUNCH_DATE":"2020-11-25","EPHEMERIS_TYPE":"0","TLE_LINE2":"2 47179  53.0553 326.7404 0001456  71.5341 288.5806 15.06400632 73626","SITE":"AFETR","MEAN_ANOMALY":"288.5806","REV_AT_EPOCH":"7362","GP_ID":"199536782"},{"MEAN_ANOMALY":"291.1889","SITE":"AFETR","GP_ID":"199538034","REV_AT_EPOCH":"7405","TLE_LINE2":"2 47181  53.0546 296.5784 0001716  68.9283 291.1889 15.06399921 74057","EPHEMERIS_TYPE":"0","COUNTRY_CODE":"US","RCS_SIZE":"LARGE","LAUNCH_DATE":"2020-11-25","MEAN_ELEMENT_THEORY":"SGP4","NORAD_CAT_ID":"47181","ARG_OF_PERICENTER":"68.9283","FILE":"3371636","MEAN_MOTION":"15.06399921","TIME_SYSTEM":"UTC","ECCENTRICITY":"0.00017160","RA_OF_ASC_NODE":"296.5784","CENTER_NAME":"EARTH","INCLINATION":"53.0546","TLE_LINE1":"1 47181U 20088BM  22082.88577374  .00002327  00000-0  17505-3 0  9997","OBJECT_TYPE":"PAYLOAD","ELEMENT_SET_NO":"999","OBJECT_ID":"2020-088BM","PERIOD":"95.592","MEAN_MOTION_DOT":"0.00002327","DECAY_DATE":null,"CLASSIFICATION_TYPE":"U","EPOCH":"2022-03-23T21:15:30.851136","BSTAR":"0.00017505000000","SEMIMAJOR_AXIS":"6925.349","APOAPSIS":"548.402","PERIAPSIS":"546.025","MEAN_MOTION_DDOT":"0.0000000000000","REF_FRAME":"TEME","OBJECT_NAME":"STARLINK-1927"},{"ARG_OF_PERICENTER":"2.2408","FILE":"3371636","MEAN_MOTION":"15.76749679","LAUNCH_DATE":"2021-01-20","MEAN_ELEMENT_THEORY":"SGP4","NORAD_CAT_ID":"47349","COUNTRY_CODE":"US","RCS_SIZE":"LARGE","EPHEMERIS_TYPE":"0","TLE_LINE2":"2 47349  53.0417 342.3927 0001264   2.2408 357.8617 15.76749679 66299","GP_ID":"199538302","REV_AT_EPOCH":"6629","MEAN_ANOMALY":"357.8617","SITE":"AFETR","MEAN_MOTION_DDOT":"0.0000000000000","REF_FRAME":"TEME","OBJECT_NAME":"STARLINK-1952","SEMIMAJOR_AXIS":"6717.794","PERIAPSIS":"338.810","APOAPSIS":"340.508","CLASSIFICATION_TYPE":"U","EPOCH":"2022-03-23T21:10:03.740736","BSTAR":"0.00008733900000","OBJECT_ID":"2021-005A","PERIOD":"91.327","DECAY_DATE":null,"MEAN_MOTION_DOT":"0.00013677","OBJECT_TYPE":"PAYLOAD","ELEMENT_SET_NO":"999","INCLINATION":"53.0417","CENTER_NAME":"EARTH","TLE_LINE1":"1 47349U 21005A   22082.88198774  .00013677  00000-0  87339-4 0  9999","RA_OF_ASC_NODE":"342.3927","TIME_SYSTEM":"UTC","ECCENTRICITY":"0.00012640"},{"OBJECT_TYPE":"PAYLOAD","ELEMENT_SET_NO":"999","INCLINATION":"53.0552","CENTER_NAME":"EARTH","TLE_LINE1":"1 47350U 21005B   22082.19465494 -.00000729  00000-0 -30005-4 0  9995","RA_OF_ASC_NODE":"79.6705","TIME_SYSTEM":"UTC","ECCENTRICITY":"0.00022460","MEAN_MOTION_DDOT":"0.0000000000000","OBJECT_NAME":"STARLINK-2011","REF_FRAME":"TEME","SEMIMAJOR_AXIS":"6925.355","APOAPSIS":"548.775","PERIAPSIS":"545.664","EPOCH":"2022-03-23T04:40:18.186816","CLASSIFICATION_TYPE":"U","BSTAR":"-0.00003000500000","PERIOD":"95.592","OBJECT_ID":"2021-005B","DECAY_DATE":null,"MEAN_MOTION_DOT":"-0.00000729","TLE_LINE2":"2 47350  53.0552  79.6705 0002246  26.2229 333.8873 15.06398021 64877","EPHEMERIS_TYPE":"0","GP_ID":"199476256","REV_AT_EPOCH":"6487","SITE":"AFETR","MEAN_ANOMALY":"333.8873","ARG_OF_PERICENTER":"26.2229","MEAN_MOTION":"15.06398021","FILE":"3371208","LAUNCH_DATE":"2021-01-20","NORAD_CAT_ID":"47350","MEAN_ELEMENT_THEORY":"SGP4","COUNTRY_CODE":"US","RCS_SIZE":"LARGE"},{"ELEMENT_SET_NO":"999","OBJECT_TYPE":"PAYLOAD","TLE_LINE1":"1 47351U 21005C   22082.88760737 -.00001611  00000-0 -89237-4 0  9992","CENTER_NAME":"EARTH","INCLINATION":"53.0562","RA_OF_ASC_NODE":"36.5529","ECCENTRICITY":"0.00014610","TIME_SYSTEM":"UTC","REF_FRAME":"TEME","OBJECT_NAME":"STARLINK-2017","MEAN_MOTION_DDOT":"0.0000000000000","APOAPSIS":"548.193","PERIAPSIS":"546.170","SEMIMAJOR_AXIS":"6925.316","BSTAR":"-0.00008923700000","CLASSIFICATION_TYPE":"U","EPOCH":"2022-03-23T21:18:09.276768","DECAY_DATE":null,"MEAN_MOTION_DOT":"-0.00001611","OBJECT_ID":"2021-005C","PERIOD":"95.591","TLE_LINE2":"2 47351  53.0562  36.5529 0001461  67.3602 292.7542 15.06410503 66197","EPHEMERIS_TYPE":"0","REV_AT_EPOCH":"6619","GP_ID":"199514048","MEAN_ANOMALY":"292.7542","SITE":"AFETR","FILE":"3371617","MEAN_MOTION":"15.06410503","ARG_OF_PERICENTER":"67.3602","MEAN_ELEMENT_THEORY":"SGP4","NORAD_CAT_ID":"47351","LAUNCH_DATE":"2021-01-20","RCS_SIZE":"LARGE","COUNTRY_CODE":"US"},{"ELEMENT_SET_NO":"999","OBJECT_TYPE":"PAYLOAD","TLE_LINE1":"1 47352U 21005D   22082.70699761 -.00000403  00000-0 -81578-5 0  9991","INCLINATION":"53.0563","CENTER_NAME":"EARTH","RA_OF_ASC_NODE":"77.3785","ECCENTRICITY":"0.00019370","TIME_SYSTEM":"UTC","REF_FRAME":"TEME","OBJECT_NAME":"STARLINK-2034","MEAN_MOTION_DDOT":"0.0000000000000","APOAPSIS":"548.540","PERIAPSIS":"545.857","SEMIMAJOR_AXIS":"6925.334","BSTAR":"-0.00000815780000","CLASSIFICATION_TYPE":"U","EPOCH":"2022-03-23T16:58:04.593504","MEAN_MOTION_DOT":"-0.00000403","DECAY_DATE":null,"OBJECT_ID":"2021-005D","PERIOD":"95.592","EPHEMERIS_TYPE":"0","TLE_LINE2":"2 47352  53.0563  77.3785 0001937  49.8293 310.2865 15.06404823 64948","REV_AT_EPOCH":"6494","GP_ID":"199538052","MEAN_ANOMALY":"310.2865","SITE":"AFETR","FILE":"3371636","MEAN_MOTION":"15.06404823","ARG_OF_PERICENTER":"49.8293","MEAN_ELEMENT_THEORY":"SGP4","NORAD_CAT_ID":"47352","LAUNCH_DATE":"2021-01-20","RCS_SIZE":"LARGE","COUNTRY_CODE":"US"},{"OBJECT_TYPE":"PAYLOAD","ELEMENT_SET_NO":"999","INCLINATION":"53.0570","CENTER_NAME":"EARTH","TLE_LINE1":"1 47353U 21005E   22082.52960912  .00000659  00000-0  63122-4 0  9996","RA_OF_ASC_NODE":"23.1715","TIME_SYSTEM":"UTC","ECCENTRICITY":"0.00018430","MEAN_MOTION_DDOT":"0.0000000000000","OBJECT_NAME":"STARLINK-2045","REF_FRAME":"TEME","SEMIMAJOR_AXIS":"6925.329","APOAPSIS":"548.471","PERIAPSIS":"545.918","EPOCH":"2022-03-23T12:42:38.227968","CLASSIFICATION_TYPE":"U","BSTAR":"0.00006312200000","PERIOD":"95.592","OBJECT_ID":"2021-005E","DECAY_DATE":null,"MEAN_MOTION_DOT":"0.00000659","TLE_LINE2":"2 47353  53.0570  23.1715 0001843  54.9589 305.1573 15.06406295 65697","EPHEMERIS_TYPE":"0","GP_ID":"199477493","REV_AT_EPOCH":"6569","SITE":"AFETR","MEAN_ANOMALY":"305.1573","ARG_OF_PERICENTER":"54.9589","MEAN_MOTION":"15.06406295","FILE":"3371208","LAUNCH_DATE":"2021-01-20","NORAD_CAT_ID":"47353","MEAN_ELEMENT_THEORY":"SGP4","COUNTRY_CODE":"US","RCS_SIZE":"LARGE"}];
